OSCAR 7 (AO-7)          
1 07530U 74089B   17308.85032597 -.00000047  00000-0 -19552-4 0  9990
2 07530 101.6517 274.8610 0012433  50.0388  15.2148 12.53629658966259
UOSAT 2 (UO-11)         
1 14781U 84021B   17309.19204348  .00000136  00000-0  22977-4 0  9998
2 14781  97.6805 349.5827 0009988  97.0346 263.2005 14.82950916811248
LUSAT (LO-19)           
1 20442U 90005G   17308.85169648  .00000007  00000-0  18469-4 0  9991
2 20442  98.5864 243.9967 0012913  92.0063 268.2600 14.32876244451702
EYESAT-1 (AO-27)        
1 22825U 93061C   17308.41156596 -.00000008  00000-0  14879-4 0  9996
2 22825  98.8316 275.8454 0007384 284.8249  75.2115 14.30011979257448
ITAMSAT (IO-26)         
1 22826U 93061D   17308.90003997 -.00000000  00000-0  17661-4 0  9991
2 22826  98.8259 276.4063 0007862 271.8980  88.1301 14.30342009257695
RADIO ROSTO (RS-15)     
1 23439U 94085A   17308.50837227 -.00000025  00000-0  49924-3 0  9999
2 23439  64.8192 352.2139 0164616 221.7091 243.4228 11.27566772941232
JAS-2 (FO-29)           
1 24278U 96046B   17309.17667864 -.00000008  00000-0  30041-4 0  9994
2 24278  98.5389 173.5208 0349987 332.1488  26.1294 13.53079981 47946
TECHSAT 1B (GO-32)      
1 25397U 98043D   17308.90133496 -.00000005  00000-0  16678-4 0  9992
2 25397  98.6236 248.3512 0000954  11.5447 348.5753 14.23632693  3813
ISS (ZARYA)             
1 25544U 98067A   17309.77476258  .00002419  00000-0  43882-4 0  9991
2 25544  51.6436  52.4844 0004356  89.5181  20.9169 15.54064129 83773
PCSAT (NO-44)           
1 26931U 01043C   17309.55153035 -.00000035  00000-0  18231-4 0  9994
2 26931  67.0509  86.4493 0005408 260.7708  99.2781 14.30481544840564
SAUDISAT 1C (SO-50)     
1 27607U 02058C   17308.79022436  .00000055  00000-0  28553-4 0  9996
2 27607  64.5564  55.8852 0037804  30.5229 329.8062 14.75385437799855
CUTE-1 (CO-55)          
1 27844U 03031E   17309.00723400  .00000084  00000-0  57577-4 0  9995
2 27844  98.6898 315.9669 0008864 303.8474  56.1859 14.22072262744332
CUBESAT XI-IV (CO-57)   
1 27848U 03031J   17308.90458654  .00000062  00000-0  48349-4 0  9996
2 27848  98.6989 316.1826 0008881 314.9772  45.0684 14.21682240744164
MOZHAYETS 4 (RS-22)     
1 27939U 03042A   17309.54265229  .00000172  00000-0  39340-4 0  9997
2 27939  97.9599  89.9066 0013979 134.1418 297.8112 14.66623981754034
CUBESAT XI-V (CO-58)    
1 28895U 05043F   17309.43360839  .00000205  00000-0  48176-4 0  9997
2 28895  97.8811 105.3647 0017943  59.4527 300.8443 14.63465736641143
CUTE-1.7+APD II (CO-65) 
1 32785U 08021C   17308.79272028  .00000342  00000-0  42873-4 0  9999
2 32785  97.5587 326.5905 0014514  65.6048 294.6682 14.87994539515807
DELFI-C3 (DO-64)        
1 32789U 08021G   17309.43212081  .00002378  00000-0  16968-3 0  9994
2 32789  97.5438   4.6064 0011994 347.4749  12.6178 15.05429036518115
SEEDS II (CO-66)        
1 32791U 08021J   17308.63936025  .00000452  00000-0  51834-4 0  9992
2 32791  97.5532 331.2303 0014566  50.6232 309.6274 14.90372305516063
YUBILEINY (RS-30)       
1 32953U 08025A   17309.53390297  .00000015  00000-0  35466-4 0  9999
2 32953  82.5007 151.7760 0019059 339.3827  20.6482 12.43079963428989
PRISM (HITOMI)          
1 33493U 09002B   17309.51451158  .00001268  00000-0  11877-3 0  9997
2 33493  98.1493 197.7708 0014844 341.9340  18.1364 14.95921202476906
KKS-1 (KISEKI)          
1 33499U 09002H   17309.49676807  .00000180  00000-0  34664-4 0  9992
2 33499  98.3440 119.1465 0008017 286.8974  73.1355 14.75253812472190
SWISSCUBE               
1 35932U 09051B   17309.35467844  .00000219  00000-0  60621-4 0  9999
2 35932  98.5158  90.5589 0007920 169.7606 190.3754 14.56079470430862
BEESAT                  
1 35933U 09051C   17308.98617144  .00000179  00000-0  51465-4 0  9999
2 35933  98.5198  91.5852 0005856 180.9347 179.1840 14.56191383430919
ITUPSAT 1               
1 35935U 09051E   17309.39622372  .00000157  00000-0  47219-4 0  9994
2 35935  98.5310  92.2586 0008260 177.1444 182.9801 14.55378634430775
XIWANG-1 (HOPE-1)       
1 36122U 09072B   17308.94962535 -.00000024  00000-0  48950-4 0  9991
2 36122 100.0912 328.9616 0006832 270.3998  89.6333 13.16341949379047
TISAT 1                 
1 36799U 10035E   17308.85661625  .00000670  00000-0  74540-4 0  9998
2 36799  98.0791  74.5915 0011629 220.2775 139.7582 14.90580577396734
JUGNU                   
1 37839U 11058B   17308.37496112  .00000324  00000-0  31075-4 0  9996
2 37839  19.9624 320.4489 0018726 289.0362 199.6130 14.12599649313542
SRMSAT                  
1 37841U 11058D   17309.18517104  .00000311  00000-0  25731-4 0  9992
2 37841  19.9733   0.1194 0011766 189.1226 203.5340 14.10589687313218
M-CUBED & EXP-1 PRIME   
1 37855U 11061F   17308.76420195  .00003962  00000-0  21094-3 0  9999
2 37855 101.7109 251.5843 0179234  26.1611 334.8520 15.03633675327916
HORYU 2                 
1 38340U 12025D   17308.94869962  .00000312  00000-0  54041-4 0  9994
2 38340  98.3774 317.8488 0011191 198.7294 161.3503 14.75435999283637
STRAND-1                
1 39090U 13009E   17309.15037103  .00000043  00000-0  30624-4 0  9990
2 39090  98.5395 153.1799 0008219 239.4160 120.6215 14.34993054245697
SOMP                    
1 39134U 13015E   17309.52634367  .00002029  00000-0  10661-3 0  9996
2 39134  64.8631 130.0414 0033477 242.8922 116.8788 15.18411614250936
BEESAT-3                
1 39135U 13015F   17308.92681847  .00001481  00000-0  85859-4 0  9998
2 39135  64.8679 142.4960 0032981 263.5409  96.1961 15.16068778250256
BEESAT-2                
1 39136U 13015G   17308.95151737  .00001665  00000-0  96505-4 0  9996
2 39136  64.8684 144.6131 0033606 262.1556  97.5753 15.15565082250219
CUBEBUG-1 (CAPITAN BETO)
1 39153U 13018D   17309.50842261  .00000354  00000-0  53464-4 0  9990
2 39153  97.9849  41.0511 0015964 313.9413  46.0481 14.80275278244490
ZACUBE-1 (TSHEPISOSAT)  
1 39417U 13066B   17308.91833152  .00000348  00000-0  50315-4 0  9994
2 39417  97.6143 344.2252 0059623 168.1718 192.0912 14.80809177213606
TRITON-1                
1 39427U 13066M   17309.53645895  .00000298  00000-0  56064-4 0  9990
2 39427  97.6367 315.4156 0112811 255.7858 103.0796 14.67553714211771
GOMX 1                  
1 39430U 13066Q   17309.52681586  .00000363  00000-0  75334-4 0  9994
2 39430  97.6751 297.8599 0150866 317.1292  41.8226 14.58964103210531
HUMSAT-D                
1 39433U 13066T   17308.73569822  .00000668  00000-0  71385-4 0  9997
2 39433  97.6366   7.5925 0032549 109.1883 251.2863 14.91626944214967
EAGLE 2                 
1 39436U 13066W   17309.56080433  .00047819  00000-0  92937-3 0  9992
2 39436  97.7144  63.2900 0007951 288.1339  71.9044 15.47440352218422
CUBEBUG-2 (LO-74)       
1 39440U 13066AA  17309.02947171  .00000315  00000-0  51097-4 0  9992
2 39440  97.6177 332.4323 0080161 202.4127 157.3574 14.75548449212865
FUNCUBE-1 (AO-73)       
1 39444U 13066AE  17309.16525706  .00000436  00000-0  60354-4 0  9997
2 39444  97.6156 345.6957 0058902 163.6487 196.6644 14.81562617212482
UWE-3                   
1 39446U 13066AG  17308.89455094  .00000330  00000-0  50747-4 0  9998
2 39446  97.6147 337.9268 0070270 185.8697 174.1699 14.78081051211398
SPROUT                  
1 39770U 14029E   17309.53593079  .00001014  00000-0  12074-3 0  9996
2 39770  97.8759  47.5678 0008176 216.2361 143.8309 14.86502883187136
UNISAT-6                
1 40012U 14033C   17308.68729083  .00000278  00000-0  49207-4 0  9993
2 40012  97.8356 187.8532 0057913 200.9783 158.9049 14.73707767181639
DUCHIFAT-1              
1 40021U 14033M   17309.46212802  .00000715  00000-0  79808-4 0  9992
2 40021  97.9140 222.7953 0012506 190.0672 170.0297 14.90078315183633
FUNCUBE-3 (EO-79)       
1 40025U 14033R   17308.77862407  .00000485  00000-0  58103-4 0  9990
2 40025  97.9064 219.5950 0011904 197.3620 162.7191 14.88552727183404
CHUBUSAT-1              
1 40300U 14070C   17309.47526737  .00001256  00000-0  59177-4 0  9997
2 40300  97.3868  26.7352 0019699 331.7348 152.1293 15.21192880166269
NUDT-PHONESAT           
1 40900U 15049B   17309.53451489  .00002757  00000-0  12988-3 0  9993
2 40900  97.4431 315.5280 0015610  91.7090 268.5933 15.20258828117923
ZDPS 2A                 
1 40901U 15049C   17309.51544257  .00001450  00000-0  77419-4 0  9998
2 40901  97.4591 314.4511 0015587  94.5409 265.7605 15.16618290117758
ZDPS 2B                 
1 40902U 15049D   17309.52643607  .00001393  00000-0  74847-4 0  9997
2 40902  97.4472 312.8718 0015661  91.9768 268.3258 15.16439139117745
XW-2A                   
1 40903U 15049E   17309.53162483  .00002932  00000-0  76500-4 0  9995
2 40903  97.4098 336.9548 0016256 114.1313 246.1635 15.39531186119388
KAITUO 1A               
1 40904U 15049F   17309.50236875  .00001005  00000-0  57619-4 0  9990
2 40904  97.4566 312.3692 0016662  92.2155  76.8426 15.14739764117635
2015-049G               
1 40905U 15049G   17309.54013512  .00000705  00000-0  42612-4 0  9999
2 40905  97.4544 310.8702 0017594  85.1018 275.2222 15.13737908117581
XW-2C                   
1 40906U 15049H   17309.55032371  .00001098  00000-0  62410-4 0  9999
2 40906  97.4574 312.2593 0016880  85.4745 274.8414 15.14834723117634
XW-2D                   
1 40907U 15049J   17309.52326790  .00001206  00000-0  67987-4 0  9993
2 40907  97.4546 311.9636 0016234  83.8269 276.4812 15.14959576117638
LILACSAT 2              
1 40908U 15049K   17309.53539193  .00000630  00000-0  38940-4 0  9995
2 40908  97.4651 311.6076 0017790  83.3755 276.9500 15.13298274117543
XW-2F                   
1 40910U 15049M   17309.50403812  .00001750  00000-0  94346-4 0  9999
2 40910  97.4560 312.8611 0017018  81.0688 279.2471 15.15979998117551
XW-2B                   
1 40911U 15049N   17309.53317700  .00001163  00000-0  65774-4 0  9994
2 40911  97.4586 312.4183 0016142  84.2398 276.0674 15.14913429117534
